NORAD_CAT_ID,OBJECT_NAME,OBJECT_TYPE,EPOCH,MEAN_MOTION,ECCENTRICITY,INCLINATION,RA_OF_ASC_NODE,ARG_OF_PERICENTER,MEAN_ANOMALY,BSTAR,MEAN_MOTION_DOT,MEAN_MOTION_DDOT,TLE_LINE0,TLE_LINE1,TLE_LINE2,SEMIMAJOR_AXIS,PERIOD,APOGEE,PERIGEE,DECAYED
52632.0,STARLINK-3995,PAYLOAD,2024-05-04 04:43:10,15.08824989,0.0001659,53.2175,57.0381,77.9015,282.2163,-0.00023071,-3.956e-05,0.0,0 STARLINK-3995,1 52632U 22052AL  24125.19664404 -.00003956  00000-0 -23071-3 0  9998,2 52632  53.2175  57.0381 0001659  77.9015 282.2163 15.08824989109544,6917.926,95.439,540.939,538.644,0.0
52632.0,STARLINK-3995,PAYLOAD,2024-05-04 19:01:38,15.08842015,0.0001505,53.217,54.3634,75.489,284.6269,0.0012178,0.00019147,0.0,0 STARLINK-3995,1 52632U 22052AL  24125.79280891  .00019147  00000-0  12178-2 0  9990,2 52632  53.2170  54.3634 0001505  75.4890 284.6269 15.08842015109637,6917.874,95.437,540.78,538.698,0.0
52632.0,STARLINK-3995,PAYLOAD,2024-05-05 04:33:57,15.08863193,0.0001413,53.2168,52.579,76.3604,283.7546,0.0016028,0.00025329,0.0,0 STARLINK-3995,1 52632U 22052AL  24126.19024459  .00025329  00000-0  16028-2 0  9998,2 52632  53.2168  52.5790 0001413  76.3604 283.7546 15.08863193109322,6917.809,95.436,540.652,538.697,0.0
52632.0,STARLINK-3995,PAYLOAD,2024-05-06 01:13:57,15.08865824,0.0001648,53.2175,48.7097,128.859,231.255,0.00073757,0.00011478,0.0,0 STARLINK-3995,1 52632U 22052AL  24127.05135497  .00011478  00000-0  73757-3 0  9992,2 52632  53.2175  48.7097 0001648 128.8590 231.2550 15.08865824109825,6917.801,95.436,540.807,538.526,0.0
52632.0,STARLINK-3995,PAYLOAD,2024-05-06 12:21:39,15.08862712,0.0001596,53.2178,46.6312,75.6041,284.5128,0.00067245,0.00010437,0.0,0 STARLINK-3995,1 52632U 22052AL  24127.51503510  .00010437  00000-0  67245-3 0  9997,2 52632  53.2178  46.6312 0001596  75.6041 284.5128 15.08862712109899,6917.811,95.436,540.78,538.572,0.0
52632.0,STARLINK-3995,PAYLOAD,2024-05-06 21:53:57,15.08853462,0.0001685,53.2181,44.8476,93.5181,266.6003,0.00032754,4.93e-05,0.0,0 STARLINK-3995,1 52632U 22052AL  24127.91247372  .00004930  00000-0  32754-3 0  9990,2 52632  53.2181  44.8476 0001685  93.5181 266.6003 15.08853462109588,6917.839,95.437,540.87,538.539,0.0
52632.0,STARLINK-3995,PAYLOAD,2024-05-07 04:15:29,15.08858225,0.0001607,53.2198,43.6568,99.7051,260.4122,0.00015958,2.254e-05,0.0,0 STARLINK-3995,1 52632U 22052AL  24128.17742920  .00002254  00000-0  15958-3 0  9992,2 52632  53.2198  43.6568 0001607  99.7051 260.4122 15.08858225109994,6917.825,95.436,540.801,538.578,0.0
52632.0,STARLINK-3995,PAYLOAD,2024-05-07 21:44:45,15.08829697,0.0001361,53.2192,40.386,104.8487,255.2656,-0.00014658,-2.619e-05,0.0,0 STARLINK-3995,1 52632U 22052AL  24128.90608381 -.00002619  00000-0 -14658-3 0  9998,2 52632  53.2192  40.3860 0001361 104.8487 255.2656 15.08829697109732,6917.912,95.438,540.718,538.835,0.0
52632.0,STARLINK-3995,PAYLOAD,2024-05-08 00:55:31,15.08830947,0.0001543,53.2184,39.7909,112.0173,248.0983,-0.00011002,-2.038e-05,0.0,0 STARLINK-3995,1 52632U 22052AL  24129.03856351 -.00002038  00000-0 -11002-3 0  9990,2 52632  53.2184  39.7909 0001543 112.0173 248.0983 15.08830947110122,6917.908,95.438,540.84,538.706,0.0
52632.0,STARLINK-3995,PAYLOAD,2024-05-08 10:27:50,15.08834259,0.0001426,53.2186,38.0077,106.1426,253.9724,-2.4956e-05,-6.85e-06,0.0,0 STARLINK-3995,1 52632U 22052AL  24129.43600475 -.00000685  00000-0 -24956-4 0  9997,2 52632  53.2186  38.0077 0001426 106.1426 253.9724 15.08834259109819,6917.898,95.438,540.749,538.776,0.0
52632.0,STARLINK-3995,PAYLOAD,2024-05-08 21:35:32,15.08836364,0.0001334,53.2188,35.9266,102.0023,258.1119,8.9508e-05,1.137e-05,0.0,0 STARLINK-3995,1 52632U 22052AL  24129.89968606  .00001137  00000-0  89508-4 0  9995,2 52632  53.2188  35.9266 0001334 102.0023 258.1119 15.08836364109884,6917.892,95.438,540.679,538.834,0.0
52632.0,STARLINK-3995,PAYLOAD,2024-05-09 02:21:42,15.08847185,0.000136,53.2188,35.0372,108.2893,251.8247,0.00036001,5.447e-05,0.0,0 STARLINK-3995,1 52632U 22052AL  24130.09840370  .00005447  00000-0  36001-3 0  9993,2 52632  53.2188  35.0372 0001360 108.2893 251.8247 15.08847185110286,6917.858,95.437,540.664,538.783,0.0
52632.0,STARLINK-3995,PAYLOAD,2024-05-09 10:18:38,15.08840383,0.0001335,53.2189,33.5497,106.9744,253.1395,0.00045757,7.002e-05,0.0,0 STARLINK-3995,1 52632U 22052AL  24130.42960671  .00007002  00000-0  45757-3 0  9994,2 52632  53.2189  33.5497 0001335 106.9744 253.1395 15.08840383110338,6917.879,95.438,540.668,538.821,0.0
52632.0,STARLINK-3995,PAYLOAD,2024-05-09 21:26:20,15.08842199,0.0001591,53.2194,31.4709,121.4317,238.6831,0.00028915,4.317e-05,0.0,0 STARLINK-3995,1 52632U 22052AL  24130.89328835  .00004317  00000-0  28915-3 0  9998,2 52632  53.2194  31.4709 0001591 121.4317 238.6831 15.08842199110036,6917.874,95.437,540.839,538.638,0.0
52632.0,STARLINK-3995,PAYLOAD,2024-05-10 10:09:25,15.08846,0.0001202,53.2184,29.09,97.0906,263.0223,0.00028458,4.245e-05,0.0,0 STARLINK-3995,1 52632U 22052AL  24131.42320699  .00004245  00000-0  28458-3 0  9990,2 52632  53.2184  29.0900 0001202  97.0906 263.0223 15.08846000110483,6917.862,95.437,540.559,538.896,0.0
52632.0,STARLINK-3995,PAYLOAD,2024-05-10 21:17:07,15.08837366,0.0001343,53.2193,27.0095,92.964,267.1506,2.2512e-05,7e-07,0.0,0 STARLINK-3995,1 52632U 22052AL  24131.88689060  .00000070  00000-0  22512-4 0  9998,2 52632  53.2193  27.0095 0001343  92.9640 267.1506 15.08837366110182,6917.888,95.438,540.683,538.824,0.0
52632.0,STARLINK-3995,PAYLOAD,2024-05-11 00:27:52,15.0886903,0.000131,53.2194,26.4155,107.0969,253.0167,0.00051617,7.943e-05,0.0,0 STARLINK-3995,1 52632U 22052AL  24132.01936042  .00007943  00000-0  51617-3 0  9992,2 52632  53.2194  26.4155 0001310 107.0969 253.0167 15.08869030110572,6917.792,95.436,540.563,538.75,0.0
52632.0,STARLINK-3995,PAYLOAD,2024-05-11 10:00:09,15.0891022,0.0001196,53.2196,24.6313,93.2642,266.8487,0.0010706,0.00016824,0.0,0 STARLINK-3995,1 52632U 22052AL  24132.41677352  .00016824  00000-0  10706-2 0  9993,2 52632  53.2196  24.6313 0001196  93.2642 266.8487 15.08910220110638,6917.666,95.433,540.358,538.703,0.0
52632.0,STARLINK-3995,PAYLOAD,2024-05-11 21:07:53,15.08826742,0.0001156,53.218,22.5493,110.0517,250.06,-0.00037663,-6.275e-05,0.0,0 STARLINK-3995,1 52632U 22052AL  24132.88048179 -.00006275  00000-0 -37663-3 0  9996,2 52632  53.2180  22.5493 0001156 110.0517 250.0600 15.08826742110707,6917.921,95.438,540.586,538.986,0.0
52632.0,STARLINK-3995,PAYLOAD,2024-05-11 22:43:17,15.08812056,0.000118,53.2178,22.252,69.5621,290.5498,-0.00077444,-0.00012582,0.0,0 STARLINK-3995,1 52632U 22052AL  24132.94672823 -.00012582  00000-0 -77444-3 0  9991,2 52632  53.2178  22.2520 0001180  69.5621 290.5498 15.08812056110340,6917.966,95.439,540.647,539.014,0.0
52632.0,STARLINK-3995,PAYLOAD,2024-05-12 00:18:40,15.08796331,0.0001221,53.2178,21.9535,77.0541,283.0587,-0.0011559,-0.00018615,0.0,0 STARLINK-3995,1 52632U 22052AL  24133.01297319 -.00018615  00000-0 -11559-2 0  9990,2 52632  53.2178  21.9535 0001221  77.0541 283.0587 15.08796331110728,6918.014,95.44,540.724,539.034,0.0
52632.0,STARLINK-3995,PAYLOAD,2024-05-12 09:51:01,15.08789542,0.0001147,53.2172,20.1679,77.81,282.302,-0.0008334,-0.00013508,0.0,0 STARLINK-3995,1 52632U 22052AL  24133.41042894 -.00013508  00000-0 -83340-3 0  9994,2 52632  53.2172  20.1679 0001147  77.8100 282.3020 15.08789542110414,6918.035,95.441,540.693,539.106,0.0
52632.0,STARLINK-3995,PAYLOAD,2024-05-12 20:58:43,15.08812554,0.0001412,53.2177,18.0867,70.678,289.4364,-0.00012918,-2.342e-05,0.0,0 STARLINK-3995,1 52632U 22052AL  24133.87411178 -.00002342  00000-0 -12918-3 0  9996,2 52632  53.2177  18.0867 0001412  70.6780 289.4364 15.08812554110851,6917.964,95.439,540.806,538.852,0.0
52632.0,STARLINK-3995,PAYLOAD,2024-05-12 22:34:06,15.08808503,7.59e-05,53.2168,17.7889,65.1523,294.9548,-0.00018369,-3.207e-05,0.0,0 STARLINK-3995,1 52632U 22052AL  24133.94035329 -.00003207  00000-0 -18369-3 0  9991,2 52632  53.2168  17.7889 0000759  65.1523 294.9548 15.08808503110492,6917.977,95.44,540.367,539.317,0.0
52632.0,STARLINK-3995,PAYLOAD,2024-05-13 09:41:48,15.08833044,0.0001266,53.2185,15.7065,89.4964,270.6174,0.00025092,3.707e-05,0.0,0 STARLINK-3995,1 52632U 22052AL  24134.40402830  .00003707  00000-0  25092-3 0  9992,2 52632  53.2185  15.7065 0001266  89.4964 270.6174 15.08833044110930,6917.902,95.438,540.642,538.891,0.0
52632.0,STARLINK-3995,PAYLOAD,2024-05-14 22:15:38,15.08870183,0.0002339,53.2173,8.8661,87.0778,273.0482,0.00042103,6.424e-05,0.0,0 STARLINK-3995,1 52632U 22052AL  24135.92753124  .00006424  00000-0  42103-3 0  9996,2 52632  53.2173   8.8661 0002339  87.0778 273.0482 15.08870183110799,6917.788,95.436,541.271,538.035,0.0
52632.0,STARLINK-3995,PAYLOAD,2024-05-15 01:26:24,15.08859797,0.0001498,53.2178,8.2717,93.7597,266.3566,0.00050844,7.817e-05,0.0,0 STARLINK-3995,1 52632U 22052AL  24136.06000654  .00007817  00000-0  50844-3 0  9993,2 52632  53.2178   8.2717 0001498  93.7597 266.3566 15.08859797111188,6917.82,95.436,540.721,538.649,0.0
52632.0,STARLINK-3995,PAYLOAD,2024-05-15 20:31:02,15.08842431,0.000151,53.2174,4.7045,90.1715,269.945,-0.00021021,-3.632e-05,0.0,0 STARLINK-3995,1 52632U 22052AL  24136.85489490 -.00003632  00000-0 -21021-3 0  9997,2 52632  53.2174   4.7045 0001510  90.1715 269.9450 15.08842431111309,6917.873,95.437,540.783,538.693,0.0
52632.0,STARLINK-3995,PAYLOAD,2024-05-15 22:06:25,15.088533,0.0001356,53.2172,4.4061,91.2602,268.8545,-1.838e-05,-5.81e-06,0.0,0 STARLINK-3995,1 52632U 22052AL  24136.92113009 -.00000581  00000-0 -18380-4 0  9990,2 52632  53.2172   4.4061 0001356  91.2602 268.8545 15.08853300110946,6917.84,95.437,540.643,538.767,0.0
52632.0,STARLINK-3995,PAYLOAD,2024-05-16 01:17:11,15.08859267,0.0001321,53.2174,3.81,89.1771,270.9373,-6.0882e-05,-1.257e-05,0.0,0 STARLINK-3995,1 52632U 22052AL  24137.05360725 -.00001257  00000-0 -60882-4 0  9999,2 52632  53.2174   3.8100 0001321  89.1771 270.9373 15.08859267111335,6917.821,95.436,540.6,538.773,0.0
